{
  "norad_id": 44065,
  "name": "S5",
  "history": [
    {
      "epoch": "2026-03-28T08:29:04.122816",
      "apogee_km": 36062.37856104562,
      "perigee_km": 36038.78564750049,
      "latitude_deg": -3.919434017426354,
      "longitude_deg": 60.437914240173995,
      "semi_major_axis_km": 42428.719104273056,
      "eccentricity": 0.00027803,
      "inclination_deg": 6.357,
      "raan_deg": 71.7909,
      "arg_perigee_deg": 174.164,
      "mean_anomaly_deg": 181.499,
      "mean_motion_rev_day": 0.99337421
    }
  ]
}